[{"OBJECT_NAME":"ONEWEB-0712","OBJECT_ID":"2022-166AQ","EPOCH":"2026-03-09T23:02:22.472448","MEAN_MOTION":13.16594202,"ECCENTRICITY":0.00015986,"INCLINATION":87.9008,"RA_OF_ASC_NODE":248.5085,"ARG_OF_PERICENTER":115.3565,"MEAN_ANOMALY":244.7732,"EPHEMERIS_TYPE":0,"CLASSIFICATION_TYPE":"U","NORAD_CAT_ID":54680,"ELEMENT_SET_NO":999,"REV_AT_EPOCH":15900,"BSTAR":6.9447627e-5,"MEAN_MOTION_DOT":3.9e-7,"MEAN_MOTION_DDOT":0},{"OBJECT_NAME":"SL-14 DEB","OBJECT_ID":"1991-056AW","EPOCH":"2026-03-06T19:23:23.122464","MEAN_MOTION":13.22919905,"ECCENTRICITY":0.00270247,"INCLINATION":82.5763,"RA_OF_ASC_NODE":202.9649,"ARG_OF_PERICENTER":294.6895,"MEAN_ANOMALY":65.1417,"EPHEMERIS_TYPE":0,"CLASSIFICATION_TYPE":"U","NORAD_CAT_ID":45308,"ELEMENT_SET_NO":999,"REV_AT_EPOCH":29082,"BSTAR":0.001494395,"MEAN_MOTION_DOT":6.41e-6,"MEAN_MOTION_DDOT":0}]
